OBJECT_NAME,OBJECT_ID,EPOCH,MEAN_MOTION,ECCENTRICITY,INCLINATION,RA_OF_ASC_NODE,ARG_OF_PERICENTER,MEAN_ANOMALY,EPHEMERIS_TYPE,CLASSIFICATION_TYPE,NORAD_CAT_ID,ELEMENT_SET_NO,REV_AT_EPOCH,BSTAR,MEAN_MOTION_DOT,MEAN_MOTION_DDOT
GUOWANG OBJECT C,2026-137C,2026-06-24T08:06:35.923392,13.91926960,.00117555,49.9965,226.8623,249.2244,110.7396,0,U,69574,999,102,.14001882E-3,.33E-6,0
GUOWANG OBJECT D,2026-137D,2026-06-24T14:59:53.585664,13.91533849,.00110417,49.9951,225.7140,249.3050,110.6666,0,U,69575,999,106,.11431407E-3,-.1E-7,0
GUOWANG OBJECT E,2026-137E,2026-06-26T06:37:12.468864,13.92015009,.00111119,50.0007,219.1336,257.6212,102.3444,0,U,69576,999,129,.11974481E-3,.7E-7,0
GUOWANG OBJECT F,2026-137F,2026-06-25T08:12:15.965280,13.92131584,.0010573,50.0002,222.8556,255.9869,103.9855,0,U,69577,999,116,.11446E-3,.1E-7,0
GUOWANG OBJECT G,2026-137G,2026-06-25T08:11:54.678912,13.92176055,.0010455,49.9952,222.8400,255.5137,104.4602,0,U,69578,999,116,.10392E-3,-.13E-6,0
GUOWANG OBJECT H,2026-137H,2026-06-25T11:38:14.754336,13.92076950,.0010122,49.9967,222.2731,259.8755,100.1003,0,U,69579,999,118,.14054E-3,.34E-6,0
GUOWANG OBJECT J,2026-137J,2026-06-25T13:20:19.453344,13.92367138,.0009566,49.9966,221.9773,255.8907,104.0929,0,U,69580,999,119,.1255E-3,.15E-6,0
CENTISPACE-1 GROUP 05 OBJECT A,2026-138A,2026-06-26T07:43:19.356384,14.15476413,.00100909,55.1417,247.4318,299.7479,60.2491,0,U,69582,999,131,-.10661597E-3,-.363E-5,0
CENTISPACE-1 GROUP 05 OBJECT B,2026-138B,2026-06-26T07:41:37.083840,14.15657438,.0009041,55.1416,247.4232,299.3633,60.6438,0,U,69583,999,131,-.10073392E-3,-.352E-5,0
CENTISPACE-1 GROUP 05 OBJECT C,2026-138C,2026-06-25T21:30:46.368864,14.15756274,.00089649,55.1421,248.9930,299.7805,60.2277,0,U,69584,999,125,-.65948296E-4,-.284E-5,0
CENTISPACE-1 GROUP 05 OBJECT D,2026-138D,2026-06-26T07:39:22.264416,14.15928797,.000853,55.1422,247.4135,299.9507,60.0621,0,U,69585,999,131,-.90691523E-4,-.333E-5,0
CENTISPACE-1 GROUP 05 OBJECT E,2026-138E,2026-06-26T07:38:45.699936,14.15994956,.00082539,55.1418,247.4187,300.3351,59.6807,0,U,69586,999,131,-.67803265E-4,-.288E-5,0
CENTISPACE-1 GROUP 05 OBJECT F,2026-138F,2026-06-26T07:39:13.310784,14.15918219,.00080947,55.1422,247.4216,304.8876,55.1337,0,U,69587,999,131,-.8044346E-4,-.313E-5,0
CENTISPACE-1 GROUP 05 OBJECT G,2026-138G,2026-06-26T07:37:39.840672,14.16082609,.00073881,55.1421,247.4128,304.1630,55.8643,0,U,69588,999,131,-.64585079E-4,-.282E-5,0
SPACEMOBILE-008,2026-139A,2026-06-25T15:55:15.580992,15.12777988,.00038929,52.9940,224.0841,6.0702,354.0335,0,U,69589,999,126,.43134587E-4,.465E-5,0
SPACEMOBILE-009,2026-139B,2026-06-25T14:20:57.543072,15.12671515,.00040691,52.9932,224.3843,359.8680,0.2309,0,U,69590,999,125,.42114741E-4,.445E-5,0
SPACEMOBILE-010,2026-139C,2026-06-25T14:22:17.403456,15.12502860,.00039241,52.9937,224.3921,349.2746,10.8160,0,U,69591,999,126,.43182004E-4,.461E-5,0
KUIPER-00423,2026-140A,2026-06-26T06:00:02.000160,15.38169670,.00140644,51.8819,354.7874,196.4836,3.4579,0,U,69592,999,130,.63333245E-3,.23935E-3,0
KUIPER-00428,2026-140B,2026-06-26T06:00:02.000160,15.36447387,.00067202,51.8817,354.9929,327.3527,132.4761,0,U,69593,999,256,.71295074E-3,.25458E-3,0
KUIPER-00481,2026-140C,2026-06-26T06:00:02.000160,15.37498927,.00115265,51.8799,354.8257,204.1574,336.6177,0,U,69594,999,206,.54248411E-3,.19965E-3,0
KUIPER-00490,2026-140D,2026-06-26T06:00:02.000160,15.37525285,.00062,51.8791,354.9278,259.9877,229.3977,0,U,69595,999,254,.59562612E-3,.21953E-3,0
KUIPER-00493,2026-140E,2026-06-26T06:00:02.000160,15.36237049,.00062839,51.8816,355.0152,335.0178,113.8452,0,U,69596,999,203,.53459449E-3,.18844E-3,0
KUIPER-00496,2026-140F,2026-06-26T06:00:02.000160,15.35376053,.00081732,51.8802,355.0358,339.6733,97.4756,0,U,69597,999,257,.10277905E-2,.35678E-3,0
KUIPER-00513,2026-140G,2026-06-26T06:00:02.000160,15.37664629,.00064291,51.8822,354.9235,257.5025,236.3440,0,U,69598,999,241,.59969738E-3,.22209E-3,0
KUIPER-00516,2026-140H,2026-06-26T06:00:02.000160,15.37276010,.00060194,51.8802,354.9427,275.5267,207.2717,0,U,69599,999,256,.60115748E-3,.2198E-3,0
KUIPER-00517,2026-140J,2026-06-26T06:00:02.000160,15.38678575,.00103425,51.8788,354.8533,219.6572,306.8304,0,U,69600,999,212,.5891789E-3,.22578E-3,0
KUIPER-00520,2026-140K,2026-06-26T06:00:02.000160,15.37136558,.00056401,51.8830,354.9586,279.7026,197.8670,0,U,69601,999,249,.60738867E-3,.2211E-3,0
KUIPER-00522,2026-140L,2026-06-26T06:00:02.000160,15.38163018,.00139841,51.8799,354.7832,193.2303,8.5564,0,U,69602,999,206,.60192238E-3,.22718E-3,0
KUIPER-00528,2026-140M,2026-06-26T06:00:02.000160,15.36988789,.00045687,51.8801,354.9629,285.3775,187.4947,0,U,69603,999,130,.60659391E-3,.2197E-3,0
