GUOWANG OBJECT C        
1 69574U 26137C   26175.33791578  .00000033  00000+0  14002-3 0  9999
2 69574  49.9965 226.8623 0011755 249.2244 110.7396 13.91926960  1026
GUOWANG OBJECT D        
1 69575U 26137D   26175.62492576 -.00000001  00000+0  11431-3 0  9997
2 69575  49.9951 225.7140 0011041 249.3050 110.6666 13.91533849  1061
GUOWANG OBJECT E        
1 69576U 26137E   26177.27583876  .00000007  00000+0  11974-3 0  9992
2 69576  50.0007 219.1336 0011111 257.6212 102.3444 13.92015009  1292
GUOWANG OBJECT F        
1 69577U 26137F   26176.34185145  .00000001  00000+0  11446-3 0  9995
2 69577  50.0002 222.8556 0010573 255.9869 103.9855 13.92131584  1169
GUOWANG OBJECT G        
1 69578U 26137G   26176.34160508 -.00000013  00000+0  10392-3 0  9995
2 69578  49.9952 222.8400 0010455 255.5137 104.4602 13.92176055  1160
GUOWANG OBJECT H        
1 69579U 26137H   26176.48489299  .00000034  00000+0  14054-3 0  9993
2 69579  49.9967 222.2731 0010122 259.8755 100.1003 13.92076950  1185
GUOWANG OBJECT J        
1 69580U 26137J   26176.55578071  .00000015  00000+0  12550-3 0  9998
2 69580  49.9966 221.9773 0009566 255.8907 104.0929 13.92367138  1195
CENTISPACE-1 GROUP 05 O*
1 69582U 26138A   26177.32175181 -.00000363  00000+0 -10662-3 0  9992
2 69582  55.1417 247.4318 0010090 299.7479  60.2491 14.15476413  1314
CENTISPACE-1 GROUP 05 O*
1 69583U 26138B   26177.32056810 -.00000352  00000+0 -10073-3 0  9994
2 69583  55.1416 247.4232 0009041 299.3633  60.6438 14.15657438  1314
CENTISPACE-1 GROUP 05 O*
1 69584U 26138C   26176.89637001 -.00000284  00000+0 -65948-4 0  9999
2 69584  55.1421 248.9930 0008964 299.7805  60.2277 14.15756274  1258
CENTISPACE-1 GROUP 05 O*
1 69585U 26138D   26177.31900769 -.00000333  00000+0 -90692-4 0  9991
2 69585  55.1422 247.4135 0008530 299.9507  60.0621 14.15928797  1310
CENTISPACE-1 GROUP 05 O*
1 69586U 26138E   26177.31858449 -.00000288  00000+0 -67803-4 0  9996
2 69586  55.1418 247.4187 0008253 300.3351  59.6807 14.15994956  1319
CENTISPACE-1 GROUP 05 O*
1 69587U 26138F   26177.31890406 -.00000313  00000+0 -80443-4 0  9990
2 69587  55.1422 247.4216 0008094 304.8876  55.1337 14.15918219  1319
CENTISPACE-1 GROUP 05 O*
1 69588U 26138G   26177.31782223 -.00000282  00000+0 -64585-4 0  9992
2 69588  55.1421 247.4128 0007388 304.1630  55.8643 14.16082609  1310
SPACEMOBILE-008         
1 69589U 26139A   26176.66337478  .00000465  00000+0  43135-4 0  9998
2 69589  52.9940 224.0841 0003892   6.0702 354.0335 15.12777988  1263
SPACEMOBILE-009         
1 69590U 26139B   26176.59788823  .00000445  00000+0  42115-4 0  9991
2 69590  52.9932 224.3843 0004069 359.8680   0.2309 15.12671515  1251
SPACEMOBILE-010         
1 69591U 26139C   26176.59881254  .00000461  00000+0  43182-4 0  9997
2 69591  52.9937 224.3921 0003924 349.2746  10.8160 15.12502860  1268
KUIPER-00423            
1 69592U 26140A   26177.25002315  .00023935  00000+0  63333-3 0  9997
2 69592  51.8819 354.7874 0014064 196.4836   3.4579 15.38169670  1303
KUIPER-00428            
1 69593U 26140B   26177.25002315  .00025458  00000+0  71295-3 0  9996
2 69593  51.8817 354.9929 0006720 327.3527 132.4761 15.36447387  2564
KUIPER-00481            
1 69594U 26140C   26177.25002315  .00019965  00000+0  54248-3 0  9992
2 69594  51.8799 354.8257 0011526 204.1574 336.6177 15.37498927  2062
KUIPER-00490            
1 69595U 26140D   26177.25002315  .00021953  00000+0  59563-3 0  9998
2 69595  51.8791 354.9278 0006200 259.9877 229.3977 15.37525285  2543
KUIPER-00493            
1 69596U 26140E   26177.25002315  .00018844  00000+0  53459-3 0  9992
2 69596  51.8816 355.0152 0006283 335.0178 113.8452 15.36237049  2032
KUIPER-00496            
1 69597U 26140F   26177.25002315  .00035678  00000+0  10278-2 0  9998
2 69597  51.8802 355.0358 0008173 339.6733  97.4756 15.35376053  2574
KUIPER-00513            
1 69598U 26140G   26177.25002315  .00022209  00000+0  59970-3 0  9998
2 69598  51.8822 354.9235 0006429 257.5025 236.3440 15.37664629  2411
KUIPER-00516            
1 69599U 26140H   26177.25002315  .00021980  00000+0  60116-3 0  9998
2 69599  51.8802 354.9427 0006019 275.5267 207.2717 15.37276010  2569
KUIPER-00517            
1 69600U 26140J   26177.25002315  .00022578  00000+0  58918-3 0  9992
2 69600  51.8788 354.8533 0010342 219.6572 306.8304 15.38678575  2127
KUIPER-00520            
1 69601U 26140K   26177.25002315  .00022110  00000+0  60739-3 0  9999
2 69601  51.8830 354.9586 0005640 279.7026 197.8670 15.37136558  2494
KUIPER-00522            
1 69602U 26140L   26177.25002315  .00022718  00000+0  60192-3 0  9997
2 69602  51.8799 354.7832 0013984 193.2303   8.5564 15.38163018  2064
KUIPER-00528            
1 69603U 26140M   26177.25002315  .00021970  00000+0  60659-3 0  9995
2 69603  51.8801 354.9629 0004568 285.3775 187.4947 15.36988789  1305
